STARLINK-37304          
1 68683U 26077X   26112.40356309 -.00768617  00000+0 -50726-2 0  9993
2 68683  97.2832 343.4814 0001271  94.9722 265.1689 15.77565015  1791
