{
  "norad_id": 68683,
  "name": "STARLINK-37304",
  "history": [
    {
      "epoch": "2026-04-22T09:41:07.850976Z",
      "apogee_km": 338.1955622454079,
      "perigee_km": 336.488487477287,
      "latitude_deg": -5.400057939703351e-05,
      "longitude_deg": -12.26694945863517,
      "height_km": 340.5855710269484,
      "semi_major_axis_km": 6715.479024861347,
      "eccentricity": 0.0001271,
      "inclination_deg": 97.2832,
      "raan_deg": 343.4814,
      "arg_perigee_deg": 94.9722,
      "mean_anomaly_deg": 265.1689,
      "mean_motion_rev_day": 15.77565015
    }
  ]
}